[{"OBJECT_NAME":"OBJECT D","OBJECT_ID":"2024-016D","EPOCH":"2026-03-09T22:53:28.816800","MEAN_MOTION":15.4556328,"ECCENTRICITY":0.00075961,"INCLINATION":97.4354,"RA_OF_ASC_NODE":155.9943,"ARG_OF_PERICENTER":82.5472,"MEAN_ANOMALY":277.6639,"EPHEMERIS_TYPE":0,"CLASSIFICATION_TYPE":"U","NORAD_CAT_ID":58823,"ELEMENT_SET_NO":999,"REV_AT_EPOCH":11841,"BSTAR":0.0008320931,"MEAN_MOTION_DOT":0.00040089,"MEAN_MOTION_DDOT":0},{"OBJECT_NAME":"STARLINK-36527","OBJECT_ID":"2026-020Q","EPOCH":"2026-03-09T22:00:01.999584","MEAN_MOTION":15.57466901,"ECCENTRICITY":0.00017124,"INCLINATION":42.9994,"RA_OF_ASC_NODE":140.4776,"ARG_OF_PERICENTER":283.3202,"MEAN_ANOMALY":141.7804,"EPHEMERIS_TYPE":0,"CLASSIFICATION_TYPE":"U","NORAD_CAT_ID":67631,"ELEMENT_SET_NO":999,"REV_AT_EPOCH":604,"BSTAR":-0.028699589,"MEAN_MOTION_DOT":-0.01911252,"MEAN_MOTION_DDOT":0}]
